{
    "links": {
        "self": "http://www.neowsapp.com/rest/v1/neo/54051158?api_key=iIulBulltgU6a56xZRHN4H3l9WmuAYTsLGpBGhQ2"
    },
    "id": "54051158",
    "neo_reference_id": "54051158",
    "name": "(2020 PA6)",
    "designation": "2020 PA6",
    "nasa_jpl_url": "http://ssd.jpl.nasa.gov/sbdb.cgi?sstr=54051158",
    "absolute_magnitude_h": 22.722,
    "estimated_diameter": {
        "kilometers": {
            "estimated_diameter_min": 0.0758848319,
            "estimated_diameter_max": 0.1696836427
        },
        "meters": {
            "estimated_diameter_min": 75.8848319332,
            "estimated_diameter_max": 169.6836426638
        },
        "miles": {
            "estimated_diameter_min": 0.0471526339,
            "estimated_diameter_max": 0.1054364947
        },
        "feet": {
            "estimated_diameter_min": 248.9659919998,
            "estimated_diameter_max": 556.7048821971
        }
    },
    "is_potentially_hazardous_asteroid": false,
    "close_approach_data": [
        {
            "close_approach_date": "2020-08-11",
            "close_approach_date_full": "2020-Aug-11 12:20",
            "epoch_date_close_approach": 1597148400000,
            "relative_velocity": {
                "kilometers_per_second": "7.4756183754",
                "kilometers_per_hour": "26912.2261515336",
                "miles_per_hour": "16722.2107439904"
            },
            "miss_distance": {
                "astronomical": "0.4577565204",
                "lunar": "178.0672864356",
                "kilometers": "68479400.430451548",
                "miles": "42551126.3055374424"
            },
            "orbiting_body": "Earth"
        }
    ],
    "orbital_data": {
        "orbit_id": "1",
        "orbit_determination_date": "2020-08-18 08:42:03",
        "first_observation_date": "2020-08-12",
        "last_observation_date": "2020-08-17",
        "data_arc_in_days": 5,
        "observations_used": 16,
        "orbit_uncertainty": "8",
        "minimum_orbit_intersection": ".333921",
        "jupiter_tisserand_invariant": "4.707",
        "epoch_osculation": "2459076.5",
        "eccentricity": ".07878771002664457",
        "semi_major_axis": "1.410755847977966",
        "inclination": "11.23601737705512",
        "ascending_node_longitude": "140.7719747412623",
        "orbital_period": "612.0349396255625",
        "perihelion_distance": "1.299605625309085",
        "perihelion_argument": "56.24918301786033",
        "aphelion_distance": "1.521906070646847",
        "perihelion_time": "2458874.179695360516",
        "mean_anomaly": "119.0051497954908",
        "mean_motion": ".5882017131574951",
        "equinox": "J2000",
        "orbit_class": {
            "orbit_class_type": "AMO",
            "orbit_class_description": "Near-Earth asteroid orbits similar to that of 1221 Amor",
            "orbit_class_range": "1.017 AU < q (perihelion) < 1.3 AU"
        }
    },
    "is_sentry_object": false
}